LEMUR-1                 
1 40044U 14033AL  24185.42737778  .00002809  00000+0  37864-3 0  9997
2 40044  97.6996 346.8557 0053089 253.4624 106.0752 14.78955249540104
LEMUR-2-ANUBHAVTHAKUR   
1 41873U 16062E   24184.72210246  .00439230  90419-4  99421-3 0  9997
2 41873  51.6556 341.5193 0006742 292.1523  67.8770 15.96968420424603
LEMUR-2-GREENBERG       
1 42837U 17042N   24184.80705385  .00010578  00000+0  75180-3 0  9997
2 42837  97.3633  12.7763 0014564 342.7273  17.3457 15.04772286379997
LEMUR-2-ANDIS           
1 42838U 17042P   24185.50555571  .00008778  00000+0  63135-3 0  9992
2 42838  97.3631  13.1855 0016030 349.0377  11.0498 15.04360126380093
LEMUR-2-MONSON          
1 42839U 17042Q   24184.99605503  .00009151  00000+0  67440-3 0  9995
2 42839  97.3963  12.6856 0010203 329.3468  30.7161 15.03493778379963
LEMUR-2-FURIAUS         
1 42840U 17042R   24184.75678155  .00008376  00000+0  61648-3 0  9996
2 42840  97.3634  12.4760 0013935  33.9989 326.2128 15.03529491379927
LEMUR-2-PETERG          
1 42841U 17042S   24184.76513935  .00008979  00000+0  65218-3 0  9998
2 42841  97.3912  14.3320 0005537 332.6482  27.4452 15.04074178380005
LEMUR-2-DEMBITZ         
1 42842U 17042T   24185.02134776  .00009750  00000+0  71082-3 0  9995
2 42842  97.3785  14.3152 0011265 350.7363   9.3653 15.03870908380063
LEMUR-2-ZACHARY         
1 42845U 17042W   24185.04755759  .00012476  00000+0  80918-3 0  9997
2 42845  97.3772  15.0105 0008540  32.7642 327.4115 15.08190375380253
LEMUR-2-JIN-LUEN        
1 43182U 18014C   24184.69193526  .00013479  00000+0  76603-3 0  9990
2 43182  97.5869  87.7413 0010514 305.1520  54.8725 15.12974851351093
LEMUR-2-URAMCHANSOL     
1 43183U 18014D   24184.69172878  .00021926  00000+0  11184-2 0  9996
2 43183  97.5871  89.3617 0009869 292.3112  67.7075 15.16714572351194
LEMUR-2-KADI            
1 43184U 18014E   24184.70027400  .00013198  00000+0  72983-3 0  9996
2 43184  97.5671  87.2109 0008638 277.6797  82.3453 15.13973520351116
LEMUR-2-THENICKMOLO     
1 43185U 18014F   24184.71066938  .00016429  00000+0  86517-3 0  9995
2 43185  97.5839  88.4387 0005386 282.2906  77.7723 15.15681168351153
LEMUR-2-CHRISTINAHOLT   
1 43882U 18111G   24185.31103959  .00027538  00000+0  12571-2 0  9990
2 43882  97.6333  98.3588 0004646 263.6509  96.4196 15.20560875300232
LEMUR-2-TINYKEV         
1 43883U 18111H   24185.51738923  .00036599  00000+0  14728-2 0  9991
2 43883  97.6108  98.8311 0004228 262.6337  97.4419 15.24787227300387
LEMUR-2-REMY-COLTON     
1 43884U 18111J   24184.72492906  .00024064  00000+0  10961-2 0  9991
2 43884  97.6282  98.4070 0001350  83.7248 276.4141 15.20673918300215
LEMUR-2-GUSTAVO         
1 43885U 18111K   24184.81326502  .00023670  00000+0  11045-2 0  9996
2 43885  97.6266  97.5228 0009566 274.1561  85.8580 15.19806114300161
LEMUR-2-ZO              
1 43886U 18111L   24184.70095832  .00022582  00000+0  10637-2 0  9991
2 43886  97.6156  96.8379 0008600 297.9206  62.1157 15.19498586302155
LEMUR-2-NATALIEMURRAY   
1 43887U 18111M   24184.76760193  .00024026  00000+0  11090-2 0  9996
2 43887  97.6296  98.5110 0006181 228.2328 131.8379 15.20201612302207
LEMUR-2-SARAHBETTYBOO   
1 43888U 18111N   24185.51925723  .00025723  00000+0  11497-2 0  9999
2 43888  97.6657 102.6016 0008425 332.1110  27.9673 15.21280623302356
LEMUR-2-DAISY-HARPER    
1 43889U 18111P   24185.33536334  .00026375  00000+0  10902-2 0  9990
2 43889  97.6500 102.5366 0006492 335.3869  24.7057 15.23947018302372
LEMUR-2-ALEX-MADDY      
1 44407U 19038X   24185.45823346  .00705532  22572-3  14829-2 0  9994
2 44407  97.6348 192.6570 0003273 196.0991 164.0182 15.98936886277559
LEMUR-2-JPGSQUARED      
1 44855U 19089D   24185.55151786  .00094635  00000+0  16686-2 0  9996
2 44855  36.9620 243.1233 0002734 151.8181 208.2725 15.49194385251477
LEMUR-2-HIMOMANDDAD     
1 44860U 19089J   24185.20067190  .00161577  00000+0  17261-2 0  9999
2 44860  36.9588 237.2538 0007880 118.3409 241.8149 15.62433182251486
LEMUR-2-PAPPY           
1 44861U 19089K   24184.61664607  .00076029  00000+0  18094-2 0  9992
2 44861  36.9578 264.4341 0002021 105.5935 254.5043 15.40498527251107
LEMUR-2-THEODOSIA       
1 44863U 19089M   24185.49215944  .00090692  00000+0  15141-2 0  9999
2 44863  36.9629 240.6559 0003170 186.8111 173.2605 15.50749625251343
LEMUR-2-SLICERS         
1 46500U 20068Q   24184.88704936  .00087285  00000+0  15188-2 0  9999
2 46500  97.7752 156.0539 0003930 163.2536 196.8845 15.50466222207478
LEMUR-2-DAYWZAGOODDAY   
1 46501U 20068R   24184.86164814  .00054854  00000+0  12245-2 0  9990
2 46501  97.7853 155.2780 0003397 194.5480 165.5669 15.43360389207399
LEMUR-2-SUSURRUS        
1 46502U 20068S   24185.40414129  .00084193  00000+0  14632-2 0  9990
2 46502  97.7804 156.7305 0003683 175.5312 184.5972 15.50514430207558
LEMUR-2-NICHOL          
1 46503U 20068T   24184.88813254  .00046855  00000+0  12089-2 0  9991
2 46503  97.7888 153.6430 0003337 227.1530 132.9435 15.39017111207303
LEMUR-2-OZARAK          
1 46908U 20081D   24184.87880515  .00080347  00000+0  19825-2 0  9997
2 46908  36.8964  28.8550 0003660 337.8739  22.1856 15.39379077201310
LEMUR-2-JINDRA          
1 46909U 20081E   24184.89663808  .00176176  00000+0  25928-2 0  9991
2 46909  36.8921   6.4294 0008953 351.5884   8.4723 15.53886570201569
LEMUR-2-WALLACE         
1 46910U 20081F   24184.88844429  .00134400  00000+0  23590-2 0  9999
2 46910  36.8884  13.8312 0005335 344.8309  15.2287 15.49154590201476
LEMUR-2-JEREMIAH        
1 46911U 20081G   24184.87327459  .00076853  00000+0  20168-2 0  9993
2 46911  36.9051  29.0959 0002897 316.4171  43.6353 15.37513166201320
LEMUR-2-AMANDA-SVANTE   
1 48269U 21034B   24185.16698828  .00010087  00000+0  82515-3 0  9996
2 48269  97.6606 250.3034 0003303 128.7090 231.4429 14.99525652172898
LEMUR-2-SPECIAL-K       
1 48273U 21034F   24185.15841520  .00011771  00000+0  93334-3 0  9991
2 48273  97.6591 250.5966 0003841 166.3258 193.8070 15.00684144172925
LEMUR-2-ANNABANANA      
1 48923U 21059AW  24185.40959008  .00616279  19720-3  72686-3 0  9993
2 48923  97.5473 355.2464 0009201 240.7187 119.3176 16.08550344169160
LEMUR-2-ROHOVITHSA      
1 51036U 22002BE  24185.20154917  .00293566  00000+0  19731-2 0  9993
2 51036  97.3835 262.1064 0005421 237.8328 122.2411 15.74326791137513
LEMUR-2-HANCOM-1        
1 52740U 22057J   24185.34224727  .00364600  00000+0  15852-2 0  9996
2 52740  97.5763 322.0236 0003444 302.4716  57.6220 15.83868091117609
LEMUR-2-PHILARI         
1 55013U 23001E   24184.74358261  .00225900  00000+0  23851-2 0  9993
2 55013  97.4193 252.3329 0004819 162.9287 197.2134 15.63467675 83549
LEMUR-2-DISCLAIMER      
1 55014U 23001F   24184.73208062  .00336245  00000+0  23055-2 0  9997
2 55014  97.4147 253.5183 0005188 195.1597 164.9512 15.73741326 83609
LEMUR-2-STEVEALBERS     
1 55017U 23001J   24185.17651686  .00088413  00000+0  14994-2 0  9996
2 55017  97.4168 251.1841 0006524 116.8623 243.3297 15.51175731 83514
LEMUR-2-MMOLO           
1 55038U 23001AF  24185.13670584  .00064185  00000+0  13071-2 0  9998
2 55038  97.4301 252.3496 0010137 105.2806 254.9564 15.45983160 83549
LEMUR-2-FUENTETAJA-01   
1 55088U 23001CH  24185.45842416  .00267777  00000+0  23365-2 0  9992
2 55088  97.4263 254.4335 0004615 149.6022 210.5507 15.68137585 83702
LEMUR-2-ONREFLECTION    
1 56182U 23054E   24185.28697344  .00053569  00000+0  93703-3 0  9991
2 56182  97.3541  84.2176 0007785 109.5789 250.6304 15.50433500 68726
LEMUR-2-SPACEGUS        
1 56187U 23054K   24185.16004281  .00212810  00000+0  23989-2 0  9999
2 56187  97.3519  85.0593 0009271 108.9700 251.2563 15.61785592 68767
LEMUR-2-EMBRIONOVIS     
1 56970U 23084AQ  24185.32465191  .00007114  00000+0  32904-3 0  9998
2 56970  97.5501 304.2790 0012214 319.1663  40.8655 15.20399613 58572
LEMUR-2-NAZIYAH         
1 56974U 23084AU  24184.86846652  .00040132  00000+0  11283-2 0  9998
2 56974  97.5328 306.5623 0008559 283.5711  76.4578 15.36360538 58725
LEMUR-2-AADAM-ALIYAH    
1 56977U 23084AX  24185.58362689  .00047871  00000+0  13423-2 0  9999
2 56977  97.5355 307.4108 0008732 284.8744  75.1532 15.36401108 58836
LEMUR-2-MANO            
1 57390U 23100E   24184.81384881  .00009702  00000+0  67943-3 0  9999
2 57390  99.4909  32.3576 0012696 239.5075 120.4892 15.05469964 52638
LEMUR-2-DEVERILL-M-T    
1 57391U 23100F   24184.51513501  .00005967  00000+0  42923-3 0  9990
2 57391  99.4715  31.4287 0012436 240.1704 119.8281 15.04700671 52593
LEMUR-2-BASS            
1 58259U 23174D   24185.19800457  .00010446  00000+0  50831-3 0  9994
2 58259  97.4536 259.0990 0011905 183.1885 176.9275 15.18514579 36113
LEMUR-2-DILIGHTFUL      
1 58260U 23174E   24184.71395632  .00019409  00000+0  82831-3 0  9990
2 58260  97.4589 259.4702 0011469 184.1671 175.9471 15.22885796 36087
LEMUR-2-GOOD-VIBES      
1 58263U 23174H   24185.17522647  .00021953  00000+0  93668-3 0  9999
2 58263  97.4525 259.7465 0010791 186.1123 173.9984 15.22874767 36151
LEMUR-2-SANITA-VETRA    
1 58267U 23174M   24184.77840837  .00021749  00000+0  93227-3 0  9996
2 58267  97.4524 259.3212 0010345 181.8082 178.3119 15.22722919 36094
LEMUR-2-MARAPAMASM      
1 58332U 23174CE  24185.21304280  .00024213  00000+0  90489-3 0  9992
2 58332  97.4516 260.8463 0009844 147.8637 212.3203 15.27304086 36238
LEMUR-2-THE-CLEANER     
1 58333U 23174CF  24185.18040828  .00019083  00000+0  79005-3 0  9994
2 58333  97.4526 260.3152 0010695 147.5637 212.6259 15.23925306 36192
LEMUR-2-MANGO2A         
1 58335U 23174CH  24185.48753640  .00057960  00000+0  17237-2 0  9996
2 58335  97.4509 262.0238 0010527 149.5813 210.6043 15.34483417 36330
LEMUR-2-JK0903EM1407    
1 58336U 23174CJ  24185.15435307  .00012736  00000+0  57996-3 0  9997
2 58336  97.4526 259.7416 0010485 145.6156 214.5760 15.20772523 36154
LEMUR-2-MANGO2B         
1 58337U 23174CK  24184.70412381  .00041978  00000+0  12537-2 0  9996
2 58337  97.4559 261.4033 0011145 152.9159 207.2667 15.34425364 36219
LEMUR-2-MJR092620       
1 58340U 23174CN  24184.73007378  .00012943  00000+0  58433-3 0  9995
2 58340  97.4589 259.5779 0011673 145.4529 214.7467 15.21053594 36090
